OBJECT_NAME,OBJECT_ID,EPOCH,MEAN_MOTION,ECCENTRICITY,INCLINATION,RA_OF_ASC_NODE,ARG_OF_PERICENTER,MEAN_ANOMALY,EPHEMERIS_TYPE,CLASSIFICATION_TYPE,NORAD_CAT_ID,ELEMENT_SET_NO,REV_AT_EPOCH,BSTAR,MEAN_MOTION_DOT,MEAN_MOTION_DDOT
BEIDOU-2 IGSO-5 (C10),2011-073A,2026-06-16T15:18:07.247232,1.00272874,.01139458,47.6789,271.5524,221.6858,92.9362,0,U,37948,999,5312,0,-.172E-5,0
LUCH 5A (SDCM/PRN 140),2011-074B,2026-06-16T12:05:47.828256,1.00270120,.00022008,8.7527,73.8173,23.0757,156.2756,0,U,37951,999,5304,0,-.57E-6,0
BEIDOU-2 G5 (C05),2012-008A,2026-06-16T11:34:54.448032,1.00271594,.0009105,3.5715,69.6964,272.5850,154.8484,0,U,38091,999,5236,0,.54E-6,0
BEIDOU-2 M3 (C11),2012-018A,2026-06-16T02:45:15.137856,1.86229792,.00201078,55.7590,304.9118,274.0322,85.7212,0,U,38250,999,9592,0,-.71E-6,0
BEIDOU-2 M4 (C12),2012-018B,2026-06-16T01:07:45.919200,1.86229354,.00112922,55.6595,304.1282,275.7401,84.1149,0,U,38251,999,9592,0,-.71E-6,0
SES-5 (EGNOS/PRN 136),2012-036A,2026-06-16T13:02:21.647040,1.00272264,.00018069,0.0485,314.0298,132.6034,18.7495,0,U,38652,999,4445,0,.32E-6,0
BEIDOU-2 M6 (C14),2012-050B,2026-06-13T01:43:42.616992,1.86230840,.0013772,56.5408,63.0305,356.7295,3.2873,0,U,38775,999,9323,0,-.56E-6,0
GSAT-10 (GAGAN/PRN 128),2012-051B,2026-06-16T11:41:53.776608,1.00269915,.00077781,0.0823,262.7408,184.4464,76.0501,0,U,38779,999,5009,0,-.166E-5,0
GPS BIIF-3  (PRN 24),2012-053A,2026-06-16T07:39:26.350272,2.00567399,.01802439,53.5858,143.6349,65.7434,296.0930,0,U,38833,999,9942,0,.37E-6,0
GSAT0103 (GALILEO-FM3),2012-055A,2026-06-14T13:01:25.557888,1.70473336,.00049172,55.8050,101.6182,305.1909,54.7190,0,U,38857,999,8496,0,-.11E-6,0
BEIDOU-2 G6 (C02),2012-059A,2026-06-16T15:07:33.445344,1.00272058,.00095781,4.4196,73.5252,324.1350,178.1629,0,U,38953,999,4990,0,-.18E-5,0
LUCH 5B (SDCM/PRN 125),2012-061A,2026-06-15T23:14:56.884416,1.00272153,.00025217,10.4794,49.8909,151.7333,35.0817,0,U,38977,999,4959,0,-.144E-5,0
COSMOS 2485 (747),2013-019A,2026-06-15T23:18:55.912608,2.13103301,.00231793,65.4190,73.6456,234.1140,125.7013,0,U,39155,999,10225,0,-.21E-6,0
GPS BIIF-4  (PRN 27),2013-023A,2026-06-16T04:27:51.537888,2.00563389,.01415373,54.5048,269.0144,51.0389,310.2484,0,U,39166,999,9586,0,-.2E-6,0
IRNSS-1A,2013-034A,2026-06-09T14:20:49.169184,1.00272948,.00174117,35.7049,63.9797,184.2474,279.8453,0,U,39199,999,4729,0,.7E-6,0
GPS BIIF-5  (PRN 30),2014-008A,2026-06-16T04:30:11.704608,2.00559661,.00842282,53.6545,149.3604,231.2656,127.9534,0,U,39533,999,8966,0,.44E-6,0
ASTRA 5B (EGNOS/PRN 123),2014-011B,2026-06-16T11:24:47.916576,1.00273179,.00017443,0.0452,340.6495,94.4588,24.3375,0,U,39617,999,4466,0,.136E-5,0
COSMOS 2492 (754),2014-012A,2026-06-15T22:19:41.799360,2.13103210,.00104349,65.2984,313.9789,325.0727,34.8423,0,U,39620,999,9521,0,-.54E-6,0
IRNSS-1B,2014-017A,2026-06-14T18:30:17.178624,1.00275602,.00230633,28.9259,240.4448,189.5629,165.7473,0,U,39635,999,4476,0,.132E-5,0
LUCH 5V (SDCM/PRN 141),2014-023A,2026-06-16T15:10:33.158208,1.00274615,.00018206,5.1307,69.7459,47.8911,109.6008,0,U,39727,999,4435,0,-.274E-5,0
GPS BIIF-6  (PRN 06),2014-026A,2026-06-15T23:08:56.599008,2.00560957,.0038176,56.4989,331.5650,326.5795,33.1716,0,U,39741,999,8851,0,-.82E-6,0
COSMOS 2500 (755),2014-032A,2026-06-13T06:49:49.213632,2.13106047,.0007281,65.2352,313.8168,184.1744,175.8059,0,U,40001,999,9337,0,-.51E-6,0
GPS BIIF-7  (PRN 09),2014-045A,2026-06-16T01:21:04.479840,2.00558255,.0033267,55.3526,88.5100,118.2726,242.0568,0,U,40105,999,8605,0,-.25E-6,0
GSAT0201 (GALILEO 5),2014-050A,2026-06-16T08:08:06.593280,1.85519940,.16745879,48.8765,273.4713,179.3614,180.9380,0,U,40128,999,7830,0,-.44E-6,0
GSAT0202 (GALILEO 6),2014-050B,2026-06-14T23:27:41.032800,1.85520518,.1675464,48.8947,272.6125,180.0339,180.0074,0,U,40129,999,8044,0,-.39E-6,0
IRNSS-1C,2014-061A,2026-06-15T20:17:51.209376,1.00269545,.00227242,6.5145,88.9566,2.2755,200.3394,0,U,40269,999,4267,0,-.164E-5,0
GPS BIIF-8  (PRN 03),2014-068A,2026-06-15T22:13:55.751808,2.00576019,.00670294,56.9867,31.0033,70.5476,290.2360,0,U,40294,999,8518,0,-.68E-6,0
COSMOS 2501 (702K),2014-075A,2026-06-16T08:41:33.559872,2.13101280,.00226304,63.6161,190.4005,212.4313,147.4857,0,U,40315,999,8983,0,.74E-6,0
GPS BIIF-9  (PRN 26),2015-013A,2026-06-16T01:33:57.623328,2.00551392,.01094969,53.1679,204.2241,40.1202,320.7619,0,U,40534,999,8180,0,.62E-6,0
GSAT0203 (GALILEO 7),2015-017A,2026-06-15T10:52:25.074336,1.70475984,.00020923,56.7863,341.6427,278.6810,81.2938,0,U,40544,999,6917,0,-.83E-6,0
GSAT0204 (GALILEO 8),2015-017B,2026-06-14T12:51:23.627232,1.70475571,.00019104,56.7953,341.6863,248.0709,111.9109,0,U,40545,999,3220,0,-.79E-6,0
